[{"OBJECT_NAME":"STARLINK-31212","OBJECT_ID":"2024-019Y","EPOCH":"2026-03-09T12:57:40.886784","MEAN_MOTION":15.27568832,"ECCENTRICITY":8.631e-5,"INCLINATION":42.9981,"RA_OF_ASC_NODE":249.4121,"ARG_OF_PERICENTER":255.9308,"MEAN_ANOMALY":104.1448,"EPHEMERIS_TYPE":0,"CLASSIFICATION_TYPE":"U","NORAD_CAT_ID":58875,"ELEMENT_SET_NO":999,"REV_AT_EPOCH":11904,"BSTAR":-6.2490886e-5,"MEAN_MOTION_DOT":-1.98e-5,"MEAN_MOTION_DDOT":0},{"OBJECT_NAME":"COSMOS 2251 DEB","OBJECT_ID":"1993-036SV","EPOCH":"2026-03-09T21:55:42.811680","MEAN_MOTION":15.15006345,"ECCENTRICITY":0.00579573,"INCLINATION":74.0283,"RA_OF_ASC_NODE":1.8812,"ARG_OF_PERICENTER":55.6817,"MEAN_ANOMALY":304.9843,"EPHEMERIS_TYPE":0,"CLASSIFICATION_TYPE":"U","NORAD_CAT_ID":34452,"ELEMENT_SET_NO":999,"REV_AT_EPOCH":91981,"BSTAR":0.0011020825,"MEAN_MOTION_DOT":0.00021495,"MEAN_MOTION_DDOT":0}]
